H1 CPF 01  gfz 2022 07 09 12  6902 terrasarx 
H2 0702601  6201 31698    2022 07 09 12 59 42 2022 07 14 00 00 42   120 1 1  0 0 0
H9
10 0 59772  69102.000000  0    3847449.615  -1952076.869   5360357.237
10 0 59772  69222.000000  0    3093123.405  -1815596.762   5870994.968
10 0 59772  69342.000000  0    2287574.986  -1633763.998   6278389.516
10 0 59772  69462.000000  0    1445657.057  -1408996.625   6575414.745
10 0 59772  69582.000000  0     582794.121  -1144723.270   6756881.416
10 0 59772  69702.000000  0    -285302.236   -845330.163   6819622.088
10 0 59772  69822.000000  0   -1142919.001   -516087.738   6762541.730
10 0 59772  69942.000000  0   -1974624.631   -163058.099   6586635.380
10 0 59772  70062.000000  0   -2765545.330    207016.084   6294972.074
10 0 59772  70182.000000  0   -3501631.037    586839.270   5892645.619
10 0 59772  70302.000000  0   -4169907.686    968704.998   5386691.737
10 0 59772  70422.000000  0   -4758711.226   1344650.049   4785971.126
10 0 59772  70542.000000  0   -5257898.445   1706618.872   4101019.857
10 0 59772  70662.000000  0   -5659030.018   2046634.069   3343867.926
10 0 59772  70782.000000  0   -5955521.347   2356969.515   2527829.811
10 0 59772  70902.000000  0   -6142759.002   2630322.301   1667269.869
10 0 59772  71022.000000  0   -6218179.459   2859979.662    777345.324
10 0 59772  71142.000000  0   -6181305.718   3039975.953   -126268.384
10 0 59772  71262.000000  0   -6033741.719   3165235.605  -1027662.084
10 0 59772  71382.000000  0   -5779124.866   3231698.061  -1910981.912
10 0 59772  71502.000000  0   -5423037.678   3236422.472  -2760717.225
10 0 59772  71622.000000  0   -4972879.697   3177668.248  -3561979.312
10 0 59772  71742.000000  0   -4437705.442   3054950.460  -4300764.928
10 0 59772  71862.000000  0   -3828032.647   2869069.045  -4964199.073
10 0 59772  71982.000000  0   -3155626.730   2622111.529  -5540753.475
10 0 59772  72102.000000  0   -2433267.940   2317430.623  -6020437.215
10 0 59772  72222.000000  0   -1674504.734   1959597.395  -6394960.445
10 0 59772  72342.000000  0    -893397.747   1554329.941  -6657865.478
10 0 59772  72462.000000  0    -104262.163   1108400.911  -6804626.956
10 0 59772  72582.000000  0     678589.082    629524.872  -6832720.757
10 0 59772  72702.000000  0    1441098.337    126227.710  -6741664.527
10 0 59772  72822.000000  0    2169711.066   -392302.214  -6533024.716
10 0 59772  72942.000000  0    2851610.899   -916377.289  -6210392.151
10 0 59772  73062.000000  0    3474942.308  -1435986.903  -5779326.855
10 0 59772  73182.000000  0    4029015.587  -1940983.427  -5247271.997
10 0 59772  73302.000000  0    4504493.809  -2421277.962  -4623437.288
10 0 59772  73422.000000  0    4893555.657  -2867040.804  -3918649.988
10 0 59772  73542.000000  0    5190031.408  -3268902.097  -3145176.818
10 0 59772  73662.000000  0    5389510.244  -3618149.122  -2316517.705
10 0 59772  73782.000000  0    5489414.442  -3906915.507  -1447173.108
10 0 59772  73902.000000  0    5489037.903  -4128357.839   -552390.153
10 0 59772  74022.000000  0    5389547.942  -4276815.060    352108.662
10 0 59772  74142.000000  0    5193949.311  -4347946.540   1250408.895
10 0 59772  74262.000000  0    4907009.556  -4338843.918   2126693.279
10 0 59772  74382.000000  0    4535149.038  -4248113.020   2965529.260
10 0 59772  74502.000000  0    4086298.650  -4075924.826   3752147.855
10 0 59772  74622.000000  0    3569729.037  -3824035.464   4472709.466
10 0 59772  74742.000000  0    2995853.971  -3495773.131   5114550.832
10 0 59772  74862.000000  0    2376015.365  -3095992.552   5666406.873
10 0 59772  74982.000000  0    1722254.434  -2630999.479   6118606.206
10 0 59772  75102.000000  0    1047073.294  -2108446.537   6463235.007
10 0 59772  75222.000000  0     363193.541  -1537203.745   6694269.273
10 0 59772  75342.000000  0    -316684.330   -927205.447   6807674.201
10 0 59772  75462.000000  0    -980116.040   -289275.849   6801469.901
10 0 59772  75582.000000  0   -1615140.176    365062.963   6675763.527
10 0 59772  75702.000000  0   -2210493.053   1023798.594   6432747.586
10 0 59772  75822.000000  0   -2755808.455   1674647.878   6076664.221
10 0 59772  75942.000000  0   -3241799.192   2305285.132   5613736.082
10 0 59772  76062.000000  0   -3660418.448   2903576.357   5052064.432
10 0 59772  76182.000000  0   -4004997.627   3457814.862   4401493.066
10 0 59772  76302.000000  0   -4270357.711   3956953.486   3673440.923
10 0 59772  76422.000000  0   -4452892.127   4390829.443   2880704.820
10 0 59772  76542.000000  0   -4550617.732   4750376.294   2037234.152
10 0 59772  76662.000000  0   -4563192.297   5027817.302   1157882.038
10 0 59772  76782.000000  0   -4491899.392   5216834.426    258138.186
10 0 59772  76902.000000  0   -4339600.994   5312710.427   -646151.038
10 0 59772  77022.000000  0   -4110657.250   5312440.560  -1539072.157
10 0 59772  77142.000000  0   -3810813.709   5214805.828  -2404934.599
10 0 59772  77262.000000  0   -3447062.695   5020412.225  -3228552.842
10 0 59772  77382.000000  0   -3027481.017   4731691.263  -3995517.566
10 0 59772  77502.000000  0   -2561049.322   4352863.799  -4692447.012
10 0 59772  77622.000000  0   -2057458.217   3889870.247  -5307215.156
10 0 59772  77742.000000  0   -1526906.644   3350270.377  -5829154.946
10 0 59772  77862.000000  0    -979895.444   2743112.516  -6249234.817
10 0 59772  77982.000000  0    -427020.496   2078775.509  -6560203.894
10 0 59772  78102.000000  0     121229.477   1368788.842  -6756705.249
10 0 59772  78222.000000  0     654666.854    625633.269  -6835358.896
10 0 59772  78342.000000  0    1163590.244   -137474.864  -6794814.465
10 0 59772  78462.000000  0    1638956.985   -906814.457  -6635770.964
10 0 59772  78582.000000  0    2072539.386  -1668399.971  -6360964.932
10 0 59772  78702.000000  0    2457064.845  -2408229.005  -5975128.761
10 0 59772  78822.000000  0    2786337.283  -3112534.463  -5484919.036
10 0 59772  78942.000000  0    3055339.365  -3768040.637  -4898813.476
10 0 59772  79062.000000  0    3260311.233  -4362214.829  -4226973.071
10 0 59772  79182.000000  0    3398804.226  -4883508.762  -3481076.249
10 0 59772  79302.000000  0    3469711.063  -5321589.273  -2674126.099
10 0 59772  79422.000000  0    3473269.266  -5667552.319  -1820228.591
10 0 59772  79542.000000  0    3411037.228  -5914111.647   -934346.954
10 0 59772  79662.000000  0    3285843.403  -6055759.711    -32036.546
10 0 59772  79782.000000  0    3101707.716  -6088893.751    870834.828
10 0 59772  79902.000000  0    2863739.078  -6011905.406   1758373.193
10 0 59772  80022.000000  0    2578010.722  -5825229.809   2614948.767
10 0 59772  80142.000000  0    2251415.105  -5531351.634   3425479.492
10 0 59772  80262.000000  0    1891504.185  -5134770.786   4175701.901
10 0 59772  80382.000000  0    1506318.918  -4641928.805   4852426.122
10 0 59772  80502.000000  0    1104212.788  -4061096.830   5443768.840
10 0 59772  80622.000000  0     693671.948  -3402228.182   5939361.843
10 0 59772  80742.000000  0     283136.556  -2676778.072   6330528.560
10 0 59772  80862.000000  0    -119171.252  -1897498.217   6610428.787
10 0 59772  80982.000000  0    -505410.020  -1078209.474   6774171.808
10 0 59772  81102.000000  0    -868270.373   -233555.234   6818897.927
10 0 59772  81222.000000  0   -1201112.279    621261.283   6743825.536
10 0 59772  81342.000000  0   -1498086.098   1470750.335   6550263.559
10 0 59772  81462.000000  0   -1754235.230   2299415.373   6241590.027
10 0 59772  81582.000000  0   -1965579.499   3092035.549   5823196.930
10 0 59772  81702.000000  0   -2129177.312   3833946.470   5302401.159
10 0 59772  81822.000000  0   -2243166.218   4511314.911   4688323.727
10 0 59772  81942.000000  0   -2306781.220   5111403.322   3991735.789
10 0 59772  82062.000000  0   -2320349.670   5622817.597   3224873.495
10 0 59772  82182.000000  0   -2285262.885   6035731.975   2401223.587
10 0 59772  82302.000000  0   -2203924.937   6342086.085   1535284.716
10 0 59772  82422.000000  0   -2079679.299   6535749.751    642307.751
10 0 59772  82542.000000  0   -1916715.276   6612650.662   -261979.417
10 0 59772  82662.000000  0   -1719956.942   6570861.950  -1161657.267
10 0 59772  82782.000000  0   -1494936.490   6410646.682  -2040906.402
10 0 59772  82902.000000  0   -1247654.795   6134453.089  -2884295.196
10 0 59772  83022.000000  0    -984435.094   5746867.115  -3677053.660
10 0 59772  83142.000000  0    -711773.162   5254525.959  -4405332.819
10 0 59772  83262.000000  0    -436187.459   4665992.091  -5056444.423
10 0 59772  83382.000000  0    -164072.261   3991593.344  -5619076.045
10 0 59772  83502.000000  0      98443.064   3243231.872  -6083479.940
10 0 59772  83622.000000  0     345625.091   2434165.802  -6441631.377
10 0 59772  83742.000000  0     572254.705   1578770.617  -6687355.136
10 0 59772  83862.000000  0     773732.016    692284.534  -6816422.153
10 0 59772  83982.000000  0     946165.480   -209459.750  -6826614.456
10 0 59772  84102.000000  0    1086444.126  -1110312.711  -6717758.728
10 0 59772  84222.000000  0    1192291.861  -1994089.894  -6491727.153
10 0 59772  84342.000000  0    1262303.799  -2844854.233  -6152409.029
10 0 59772  84462.000000  0    1295964.549  -3647198.428  -5705653.200
10 0 59772  84582.000000  0    1293646.185  -4386523.775  -5159177.169
10 0 59772  84702.000000  0    1256587.925  -5049306.721  -4522443.762
10 0 59772  84822.000000  0    1186856.898  -5623351.339  -3806509.173
10 0 59772  84942.000000  0    1087289.599  -6098023.003  -3023840.082
10 0 59772  85062.000000  0     961416.207  -6464456.268  -2188103.049
10 0 59772  85182.000000  0     813369.091  -6715733.128  -1313928.922
10 0 59772  85302.000000  0     647776.534  -6847025.690   -416655.210
10 0 59772  85422.000000  0     469644.549  -6855698.237    487947.721
10 0 59772  85542.000000  0     284229.936  -6741366.861   1383960.392
99
